STARLINK-36383          
1 67922U 26036U   26062.16668981 -.01610869  00000+0 -69278-2 0  9990
2 67922  42.9949 289.6243 0001695 275.1165 268.0383 15.86835131  2606
STARLINK-36406          
1 67923U 26036V   26062.16668981 -.01611422  00000+0 -68742-2 0  9992
2 67923  42.9949 289.6156 0001658 276.0469 270.5518 15.86999028  2600
STARLINK-36714          
1 67924U 26036W   26062.16668981 -.01611052  00000+0 -68164-2 0  9990
2 67924  42.9950 289.6069 0001647 278.5684 271.4425 15.87162769  2602
STARLINK-36726          
1 67925U 26036X   26062.16668981 -.01609226  00000+0 -67459-2 0  9997
2 67925  42.9948 289.5987 0001628 276.1303 277.1472 15.87344660  2606
STARLINK-36758          
1 67926U 26036Y   26062.16668981 -.01599780  00000+0 -66524-2 0  9993
2 67926  42.9947 289.5897 0001685 274.9610 281.7491 15.87487864  2602
STARLINK-36728          
1 67927U 26036Z   26062.16668981 -.01607125  00000+0 -65962-2 0  9992
2 67927  42.9947 289.5718 0001666 274.9818 288.7548 15.87761178  2607
STARLINK-36771          
1 67928U 26036AA  26062.16668981 -.01606074  00000+0 -66437-2 0  9993
2 67928  42.9946 289.5802 0001577 273.6491 286.7389 15.87604668  2606
STARLINK-36809          
1 67929U 26036AB  26062.16668981 -.01609696  00000+0 -65616-2 0  9995
2 67929  42.9946 289.5631 0001678 271.0723 296.1196 15.87901420  2606
STARLINK-36865          
1 67930U 26036AC  26062.16668981 -.01612963  00000+0 -64882-2 0  9992
2 67930  42.9945 289.5456 0001695 272.5067 301.6028 15.88170000  2607
STARLINK-36781          
1 67931U 26036AD  26062.16668981 -.01607897  00000+0 -65085-2 0  9999
2 67931  42.9947 289.5546 0001634 274.9826 295.6478 15.88037732  2607
